{
  "type": "FeatureCollection",
  "features": [
    {
      "type": "Feature",
      "properties": {
        "norad_id": 66576,
        "name": "STARLINK-35814",
        "group": "last-30-days",
        "lat": -32.47413406128073,
        "lon": 3.668494536078376,
        "alt_km": 416.87789923609034,
        "timestamp": "2025-12-09T09:46:46.422447+00:00",
        "meta_object_name": "STARLINK-35814",
        "meta_object_id": "2025-268V",
        "meta_epoch": "2025-12-09T04:00:01.998720",
        "meta_mean_motion": 15.50602144,
        "meta_eccentricity": 0.0001936,
        "meta_inclination": 43.001,
        "meta_ra_of_asc_node": 142.002,
        "meta_arg_of_pericenter": 264.3331,
        "meta_mean_anomaly": 61.8506,
        "meta_ephemeris_type": 0,
        "meta_classification_type": "U",
        "meta_norad_cat_id": 66576,
        "meta_element_set_no": 999,
        "meta_rev_at_epoch": 409,
        "meta_bstar": -0.0017405,
        "meta_mean_motion_dot": -0.00101227,
        "meta_mean_motion_ddot": 0,
        "tle_line1": "1 66576U 25268V   25343.16668980 -.00101227  00000+0 -17405-2 0  9997",
        "tle_line2": "2 66576  43.0010 142.0020 0001936 264.3331  61.8506 15.50602144  4097"
      },
      "geometry": {
        "type": "Point",
        "coordinates": [
          3.668494536078376,
          -32.47413406128073
        ]
      }
    },
    {
      "type": "Feature",
      "properties": {
        "norad_id": 66577,
        "name": "STARLINK-35815",
        "group": "last-30-days",
        "lat": -33.40881935251864,
        "lon": 5.6464760202672055,
        "alt_km": 416.9364400952991,
        "timestamp": "2025-12-09T09:46:46.422457+00:00",
        "meta_object_name": "STARLINK-35815",
        "meta_object_id": "2025-268W",
        "meta_epoch": "2025-12-09T04:00:01.998720",
        "meta_mean_motion": 15.50593756,
        "meta_eccentricity": 0.0001917,
        "meta_inclination": 43.0008,
        "meta_ra_of_asc_node": 141.9974,
        "meta_arg_of_pericenter": 265.7833,
        "meta_mean_anomaly": 62.3144,
        "meta_ephemeris_type": 0,
        "meta_classification_type": "U",
        "meta_norad_cat_id": 66577,
        "meta_element_set_no": 999,
        "meta_rev_at_epoch": 409,
        "meta_bstar": -0.0014397,
        "meta_mean_motion_dot": -0.00083953,
        "meta_mean_motion_ddot": 0,
        "tle_line1": "1 66577U 25268W   25343.16668980 -.00083953  00000+0 -14397-2 0  9990",
        "tle_line2": "2 66577  43.0008 141.9974 0001917 265.7833  62.3144 15.50593756  4094"
      },
      "geometry": {
        "type": "Point",
        "coordinates": [
          5.6464760202672055,
          -33.40881935251864
        ]
      }
    },
    {
      "type": "Feature",
      "properties": {
        "norad_id": 66578,
        "name": "STARLINK-35743",
        "group": "last-30-days",
        "lat": -34.315124633164515,
        "lon": 7.673958208393018,
        "alt_km": 416.98454294210114,
        "timestamp": "2025-12-09T09:46:46.422468+00:00",
        "meta_object_name": "STARLINK-35743",
        "meta_object_id": "2025-268X",
        "meta_epoch": "2025-12-09T04:00:01.998720",
        "meta_mean_motion": 15.50595373,
        "meta_eccentricity": 0.0001925,
        "meta_inclination": 43.0008,
        "meta_ra_of_asc_node": 141.9915,
        "meta_arg_of_pericenter": 267.8925,
        "meta_mean_anomaly": 62.1232,
        "meta_ephemeris_type": 0,
        "meta_classification_type": "U",
        "meta_norad_cat_id": 66578,
        "meta_element_set_no": 999,
        "meta_rev_at_epoch": 409,
        "meta_bstar": -0.0014875,
        "meta_mean_motion_dot": -0.00086698,
        "meta_mean_motion_ddot": 0,
        "tle_line1": "1 66578U 25268X   25343.16668980 -.00086698  00000+0 -14875-2 0  9991",
        "tle_line2": "2 66578  43.0008 141.9915 0001925 267.8925  62.1232 15.50595373  4097"
      },
      "geometry": {
        "type": "Point",
        "coordinates": [
          7.673958208393018,
          -34.315124633164515
        ]
      }
    },
    {
      "type": "Feature",
      "properties": {
        "norad_id": 66579,
        "name": "STARLINK-35868",
        "group": "last-30-days",
        "lat": -35.186254067530896,
        "lon": 9.744009424685363,
        "alt_km": 416.9294308697863,
        "timestamp": "2025-12-09T09:46:46.422478+00:00",
        "meta_object_name": "STARLINK-35868",
        "meta_object_id": "2025-268Y",
        "meta_epoch": "2025-12-09T04:00:01.998720",
        "meta_mean_motion": 15.50594787,
        "meta_eccentricity": 0.0002027,
        "meta_inclination": 43.0007,
        "meta_ra_of_asc_node": 141.9865,
        "meta_arg_of_pericenter": 266.2491,
        "meta_mean_anomaly": 65.6834,
        "meta_ephemeris_type": 0,
        "meta_classification_type": "U",
        "meta_norad_cat_id": 66579,
        "meta_element_set_no": 999,
        "meta_rev_at_epoch": 409,
        "meta_bstar": -0.0014752,
        "meta_mean_motion_dot": -0.00085994,
        "meta_mean_motion_ddot": 0,
        "tle_line1": "1 66579U 25268Y   25343.16668980 -.00085994  00000+0 -14752-2 0  9994",
        "tle_line2": "2 66579  43.0007 141.9865 0002027 266.2491  65.6834 15.50594787  4090"
      },
      "geometry": {
        "type": "Point",
        "coordinates": [
          9.744009424685363,
          -35.186254067530896
        ]
      }
    },
    {
      "type": "Feature",
      "properties": {
        "norad_id": 66580,
        "name": "STARLINK-35872",
        "group": "last-30-days",
        "lat": -35.98019168651608,
        "lon": 11.75538108487584,
        "alt_km": 418.419755135953,
        "timestamp": "2025-12-09T09:46:46.422488+00:00",
        "meta_object_name": "STARLINK-35872",
        "meta_object_id": "2025-268Z",
        "meta_epoch": "2025-12-08T22:00:03.000096",
        "meta_mean_motion": 15.51670573,
        "meta_eccentricity": 0.00018297,
        "meta_inclination": 43.0003,
        "meta_ra_of_asc_node": 143.4492,
        "meta_arg_of_pericenter": 258.2816,
        "meta_mean_anomaly": 117.8676,
        "meta_ephemeris_type": 0,
        "meta_classification_type": "U",
        "meta_norad_cat_id": 66580,
        "meta_element_set_no": 999,
        "meta_rev_at_epoch": 405,
        "meta_bstar": -0.028246572,
        "meta_mean_motion_dot": -0.01555423,
        "meta_mean_motion_ddot": 0,
        "tle_line1": "1 66580U 25268Z   25342.91670139 -.01555423  00000+0 -28247-1 0  9990",
        "tle_line2": "2 66580  43.0003 143.4492 0001829 258.2816 117.8676 15.51670573  4051"
      },
      "geometry": {
        "type": "Point",
        "coordinates": [
          11.75538108487584,
          -35.98019168651608
        ]
      }
    },
    {
      "type": "Feature",
      "properties": {
        "norad_id": 66581,
        "name": "STARLINK-35744",
        "group": "last-30-days",
        "lat": -36.81925752312407,
        "lon": 14.019916051154802,
        "alt_km": 416.98555002413013,
        "timestamp": "2025-12-09T09:46:46.422499+00:00",
        "meta_object_name": "STARLINK-35744",
        "meta_object_id": "2025-268AA",
        "meta_epoch": "2025-12-09T04:00:01.998720",
        "meta_mean_motion": 15.50596256,
        "meta_eccentricity": 0.0001951,
        "meta_inclination": 43.0005,
        "meta_ra_of_asc_node": 141.9768,
        "meta_arg_of_pericenter": 263.2915,
        "meta_mean_anomaly": 72.4742,
        "meta_ephemeris_type": 0,
        "meta_classification_type": "U",
        "meta_norad_cat_id": 66581,
        "meta_element_set_no": 999,
        "meta_rev_at_epoch": 404,
        "meta_bstar": -0.0015012,
        "meta_mean_motion_dot": -0.00087492,
        "meta_mean_motion_ddot": 0,
        "tle_line1": "1 66581U 25268AA  25343.16668980 -.00087492  00000+0 -15012-2 0  9992",
        "tle_line2": "2 66581  43.0005 141.9768 0001951 263.2915  72.4742 15.50596256  4048"
      },
      "geometry": {
        "type": "Point",
        "coordinates": [
          14.019916051154802,
          -36.81925752312407
        ]
      }
    },
    {
      "type": "Feature",
      "properties": {
        "norad_id": 66582,
        "name": "STARLINK-35746",
        "group": "last-30-days",
        "lat": -37.53785309273402,
        "lon": 16.11043730002831,
        "alt_km": 418.4497917294211,
        "timestamp": "2025-12-09T09:46:46.422516+00:00",
        "meta_object_name": "STARLINK-35746",
        "meta_object_id": "2025-268AB",
        "meta_epoch": "2025-12-08T22:00:03.000096",
        "meta_mean_motion": 15.51667262,
        "meta_eccentricity": 0.00018787,
        "meta_inclination": 43.0003,
        "meta_ra_of_asc_node": 143.4385,
        "meta_arg_of_pericenter": 259.8066,
        "meta_mean_anomaly": 120.179,
        "meta_ephemeris_type": 0,
        "meta_classification_type": "U",
        "meta_norad_cat_id": 66582,
        "meta_element_set_no": 999,
        "meta_rev_at_epoch": 405,
        "meta_bstar": -0.028203576,
        "meta_mean_motion_dot": -0.01553136,
        "meta_mean_motion_ddot": 0,
        "tle_line1": "1 66582U 25268AB  25342.91670139 -.01553136  00000+0 -28204-1 0  9994",
        "tle_line2": "2 66582  43.0003 143.4385 0001878 259.8066 120.1790 15.51667262  4057"
      },
      "geometry": {
        "type": "Point",
        "coordinates": [
          16.11043730002831,
          -37.53785309273402
        ]
      }
    }
  ]
}